[{"OBJECT_NAME":"STARLINK-31460","OBJECT_ID":"2024-036L","EPOCH":"2026-03-09T23:11:26.123712","MEAN_MOTION":15.30213399,"ECCENTRICITY":0.00013278,"INCLINATION":53.16,"RA_OF_ASC_NODE":76.9822,"ARG_OF_PERICENTER":88.5121,"MEAN_ANOMALY":271.6032,"EPHEMERIS_TYPE":0,"CLASSIFICATION_TYPE":"U","NORAD_CAT_ID":59008,"ELEMENT_SET_NO":999,"REV_AT_EPOCH":11536,"BSTAR":-9.737316e-5,"MEAN_MOTION_DOT":-3.243e-5,"MEAN_MOTION_DDOT":0},{"OBJECT_NAME":"ALTAIR (RS65S)","OBJECT_ID":"2024-199AW","EPOCH":"2026-03-09T21:31:54.569568","MEAN_MOTION":15.34998047,"ECCENTRICITY":0.00120363,"INCLINATION":97.3179,"RA_OF_ASC_NODE":298.9542,"ARG_OF_PERICENTER":307.5319,"MEAN_ANOMALY":52.483,"EPHEMERIS_TYPE":0,"CLASSIFICATION_TYPE":"U","NORAD_CAT_ID":61779,"ELEMENT_SET_NO":999,"REV_AT_EPOCH":12187,"BSTAR":0.00027541775,"MEAN_MOTION_DOT":9.293e-5,"MEAN_MOTION_DDOT":0}]
